IRIDIUM 112             
1 41925U 17003J   25083.82429777  .00000331  00000+0  11126-3 0  9996
2 41925  86.3905 276.0531 0002230  90.5385 269.6066 14.34218387428869
IRIDIUM 111             
1 41926U 17003K   25083.95113511 -.00000021  00000+0 -14400-4 0  9994
2 41926  86.3906 276.0605 0001885  87.5898 272.5514 14.34217516428867
IRIDIUM 113             
1 42803U 17039A   25083.72178783  .00000253  00000+0  83139-4 0  9995
2 42803  86.4012 150.0529 0002617  94.4506 265.6989 14.34214879406767
IRIDIUM 123             
1 42804U 17039B   25083.69350514  .00000822  00000+0  28637-3 0  9999
2 42804  86.4060 181.4846 0002077  92.1061 268.0372 14.34213918405521
IRIDIUM 120             
1 42805U 17039C   25083.92475598  .00000991  00000+0  34666-3 0  9992
2 42805  86.4001 149.8088 0001870  97.9289 262.2119 14.34220665406789
IRIDIUM 115             
1 42806U 17039D   25083.92407080  .00001156  00000+0  33776-3 0  9999
2 42806  86.4538 149.8759 0001964  79.1869 280.9553 14.43283560409460
IRIDIUM 118             
1 42807U 17039E   25083.51591255  .00000923  00000+0  32249-3 0  9998
2 42807  86.4047 181.5575 0002247  96.5535 263.5917 14.34214159405491
IRIDIUM 117             
1 42808U 17039F   25083.88377969  .00000972  00000+0  34010-3 0  9995
2 42808  86.4046 181.3660 0002079  87.3856 272.7577 14.34219790405570
